OBJECT_NAME,OBJECT_ID,EPOCH,MEAN_MOTION,ECCENTRICITY,INCLINATION,RA_OF_ASC_NODE,ARG_OF_PERICENTER,MEAN_ANOMALY,EPHEMERIS_TYPE,CLASSIFICATION_TYPE,NORAD_CAT_ID,ELEMENT_SET_NO,REV_AT_EPOCH,BSTAR,MEAN_MOTION_DOT,MEAN_MOTION_DDOT
EUTELSAT QUANTUM,2021-069B,2026-06-13T22:20:41.667648,1.00270985,.00020693,0.0211,35.4533,48.2208,201.4353,0,U,49056,999,1789,0,.136E-5,0
ZHONGXING-2E,2021-071A,2026-06-13T23:20:19.749984,1.00270938,.00016929,0.0380,230.4026,260.7348,219.2992,0,U,49062,999,1800,0,-.282E-5,0
TJS-7,2021-077A,2026-06-13T22:56:44.750400,1.00269821,.00020231,0.4992,86.1440,334.0218,86.8008,0,U,49115,999,952,0,-.114E-5,0
CHINASAT 9B,2021-080A,2026-06-13T23:25:08.013216,1.00270057,.00013856,0.0457,93.1115,19.2376,242.6412,0,U,49125,999,1761,0,-.303E-5,0
SHIJIAN-21 (SJ-21),2021-094A,2026-06-13T21:32:06.497952,1.00272217,.00498376,5.1051,61.2000,168.2513,123.8243,0,U,49330,999,532,0,-.341E-5,0
SES-17,2021-095A,2026-06-13T21:23:23.892000,1.00268878,.00007541,0.0244,31.9840,51.5634,72.4068,0,U,49332,999,1782,0,-.262E-5,0
SYRACUSE 4A,2021-095B,2026-06-13T22:19:05.418912,1.00270628,.0001561,0.0168,337.7768,119.9746,184.7701,0,U,49333,999,1791,0,.145E-5,0
QZS-1R (MICHIBIKI-1R),2021-096A,2026-06-13T15:27:40.262400,1.00256479,.07545779,37.4546,79.6370,271.7231,276.7370,0,U,49336,999,1697,0,-.269E-5,0
ZHONGXING-1D,2021-114A,2026-06-13T22:19:38.410752,1.00270474,.00006307,0.0299,236.6654,348.0488,142.6313,0,U,49505,999,1678,0,-.326E-5,0
STPSAT-6,2021-118A,2026-06-13T14:20:00.494016,1.00272956,.00014821,0.3114,85.4214,246.5721,33.2616,0,U,49817,999,1653,0,-.35E-6,0
EXPRESS AMU-7,2021-123A,2026-06-13T22:23:53.003904,1.00271626,.00005142,0.0126,297.3540,21.3133,64.5534,0,U,50001,999,1650,0,-.233E-5,0
EXPRESS AMU-3,2021-123B,2026-06-12T23:43:11.134848,1.00270006,.00002696,0.0226,321.3643,56.1748,342.4618,0,U,50002,999,699,0,0,0
TIANLIAN 2-02,2021-124A,2026-06-13T22:30:52.334208,1.00271004,.0001393,0.7930,86.1686,196.8562,127.9117,0,U,50005,999,1658,0,-.5E-7,0
TURKSAT 5B,2021-126A,2026-06-13T22:14:16.800576,1.00270927,.00034322,0.0681,340.4111,13.5588,283.8376,0,U,50212,999,1626,0,.156E-5,0
INMARSAT 6-F1,2021-128A,2026-06-13T20:23:44.612160,1.00270411,.00003535,0.0154,313.0255,268.8446,69.9846,0,U,50319,999,1622,0,-.162E-5,0
SHIYAN-12 01 (SY-12 01),2021-129A,2026-06-13T18:26:43.937376,1.00038566,.0003252,3.6654,79.9550,284.6275,237.1355,0,U,50321,999,1646,0,.72E-6,0
SHIYAN-12 02 (SY-12 02),2021-129B,2026-06-13T18:33:16.233984,1.00490118,.000267,3.6650,79.9607,61.1404,125.5246,0,U,50322,999,1646,0,-.232E-5,0
TJS-9,2021-135A,2026-06-13T22:21:38.219040,1.00268822,.00042866,0.0456,253.0650,155.8130,325.9569,0,U,50574,999,1639,0,-.289E-5,0
USA 324,2022-006A,2026-06-06T02:06:38.886912,1.00289779,.000284,0.7690,83.2777,165.6787,110.1567,0,U,51280,999,1602,0,-.58E-6,0
GOES 18,2022-021A,2026-06-13T15:55:27.842016,1.00271975,.00004688,0.0052,236.9985,287.1488,199.6934,0,U,51850,999,655,0,.107E-5,0
ZHONGXING-6D,2022-038A,2026-06-13T22:10:52.384224,1.00273602,.00004972,0.0184,280.4087,155.1117,284.4900,0,U,52255,999,1538,0,-.344E-5,0
NILESAT 301,2022-061A,2026-06-13T21:40:29.595648,1.00270278,.00046793,0.0458,359.9432,53.4741,166.9296,0,U,52817,999,1470,0,-.48E-6,0
CMS-02 (GSAT-24),2022-067A,2026-06-13T22:06:09.703296,1.00271291,.00014126,0.0453,108.2795,258.0236,310.4698,0,U,52903,999,1457,0,-.155E-5,0
MEASAT 3D,2022-067B,2026-06-13T18:43:13.277856,1.00268356,.00004871,0.0341,322.2499,99.7518,212.3572,0,U,52904,999,1461,0,-.23E-5,0
SES-22,2022-071A,2026-06-13T17:37:21.953568,1.00269634,.00012588,0.0131,327.3131,102.9499,317.1177,0,U,52933,999,748,0,.115E-5,0
WFOV (USA 332),2022-073A,2026-06-13T20:28:38.552736,1.00268207,.00021716,3.7021,78.5692,236.4865,13.4994,0,U,52940,999,1433,0,-.355E-5,0
TIANLIAN 2-03,2022-078A,2026-06-13T21:45:29.116800,1.00271845,.00015587,0.6635,76.9831,326.0179,196.1726,0,U,53100,999,1451,0,.81E-6,0
SBIRS GEO-6 (USA 336),2022-092A,2026-06-13T22:22:08.172192,1.00270615,.00017024,3.2635,317.4379,118.6144,300.7318,0,U,53355,999,1420,0,-.281E-5,0
EUTELSAT KONNECT VHTS,2022-110A,2026-06-13T14:52:38.049312,1.00267874,.00023865,0.0661,102.2131,323.9630,61.6108,0,U,53765,999,680,0,.27E-6,0
ZHONGXING-1E,2022-112A,2026-06-13T23:02:19.902912,1.00272597,.00008816,0.0487,232.7800,83.2298,13.2300,0,U,53813,999,1381,0,-.14E-5,0
SES-20,2022-123A,2026-06-13T16:05:04.421184,1.00267078,.00017102,0.0329,70.2801,1.1766,328.6957,0,U,53960,999,1349,0,-.9E-6,0
