EUTELSAT QUANTUM        
1 49056U 21069B   26164.93103782  .00000136  00000+0  00000+0 0  9992
2 49056   0.0211  35.4533 0002069  48.2208 201.4353  1.00270985 17899
ZHONGXING-2E            
1 49062U 21071A   26164.97245081 -.00000282  00000+0  00000+0 0  9998
2 49062   0.0380 230.4026 0001692 260.7348 219.2992  1.00270938 18002
TJS-7                   
1 49115U 21077A   26164.95607350 -.00000114  00000+0  00000+0 0  9996
2 49115   0.4992  86.1440 0002023 334.0218  86.8008  1.00269821  9522
CHINASAT 9B             
1 49125U 21080A   26164.97578719 -.00000303  00000+0  00000+0 0  9999
2 49125   0.0457  93.1115 0001385  19.2376 242.6412  1.00270057 17612
SHIJIAN-21 (SJ-21)      
1 49330U 21094A   26164.89729743 -.00000341  00000+0  00000+0 0  9990
2 49330   5.1051  61.2000 0049837 168.2513 123.8243  1.00272217  5324
SES-17                  
1 49332U 21095A   26164.89124875 -.00000262  00000+0  00000+0 0  9990
2 49332   0.0244  31.9840 0000754  51.5634  72.4068  1.00268878 17823
SYRACUSE 4A             
1 49333U 21095B   26164.92992383  .00000145  00000+0  00000+0 0  9991
2 49333   0.0168 337.7768 0001561 119.9746 184.7701  1.00270628 17912
QZS-1R (MICHIBIKI-1R)   
1 49336U 21096A   26164.64421600 -.00000269  00000+0  00000+0 0  9991
2 49336  37.4546  79.6370 0754577 271.7231 276.7370  1.00256479 16975
ZHONGXING-1D            
1 49505U 21114A   26164.93030568 -.00000326  00000+0  00000+0 0  9995
2 49505   0.0299 236.6654 0000630 348.0488 142.6313  1.00270474 16788
STPSAT-6                
1 49817U 21118A   26164.59722794 -.00000035  00000+0  00000+0 0  9993
2 49817   0.3114  85.4214 0001482 246.5721  33.2616  1.00272956 16534
EXPRESS AMU-7           
1 50001U 21123A   26164.93325236 -.00000233  00000+0  00000+0 0  9994
2 50001   0.0126 297.3540 0000514  21.3133  64.5534  1.00271626 16504
EXPRESS AMU-3           
1 50002U 21123B   26163.98832332  .00000000  00000+0  00000+0 0  9990
2 50002   0.0226 321.3643 0000269  56.1748 342.4618  1.00270006  6997
TIANLIAN 2-02           
1 50005U 21124A   26164.93810572 -.00000005  00000+0  00000+0 0  9998
2 50005   0.7930  86.1686 0001393 196.8562 127.9117  1.00271004 16582
TURKSAT 5B              
1 50212U 21126A   26164.92658334  .00000156  00000+0  00000+0 0  9991
2 50212   0.0681 340.4111 0003432  13.5588 283.8376  1.00270927 16263
INMARSAT 6-F1           
1 50319U 21128A   26164.84982190 -.00000162  00000+0  00000+0 0  9990
2 50319   0.0154 313.0255 0000353 268.8446  69.9846  1.00270411 16227
SHIYAN-12 01 (SY-12 01) 
1 50321U 21129A   26164.76856409  .00000072  00000+0  00000+0 0  9997
2 50321   3.6654  79.9550 0003252 284.6275 237.1355  1.00038566 16460
SHIYAN-12 02 (SY-12 02) 
1 50322U 21129B   26164.77310456 -.00000232  00000+0  00000+0 0  9995
2 50322   3.6650  79.9607 0002670  61.1404 125.5246  1.00490118 16469
TJS-9                   
1 50574U 21135A   26164.93169235 -.00000289  00000+0  00000+0 0  9998
2 50574   0.0456 253.0650 0004286 155.8130 325.9569  1.00268822 16399
USA 324                 
1 51280U 22006A   26157.08795008 -.00000058  00000+0  00000+0 0  9996
2 51280   0.7690  83.2777 0002840 165.6787 110.1567  1.00289779 16021
GOES 18                 
1 51850U 22021A   26164.66351669  .00000107  00000+0  00000+0 0  9993
2 51850   0.0052 236.9985 0000468 287.1488 199.6934  1.00271975  6555
ZHONGXING-6D            
1 52255U 22038A   26164.92421741 -.00000344  00000+0  00000+0 0  9993
2 52255   0.0184 280.4087 0000497 155.1117 284.4900  1.00273602 15389
NILESAT 301             
1 52817U 22061A   26164.90312032 -.00000048  00000+0  00000+0 0  9994
2 52817   0.0458 359.9432 0004679  53.4741 166.9296  1.00270278 14705
CMS-02 (GSAT-24)        
1 52903U 22067A   26164.92094564 -.00000155  00000+0  00000+0 0  9994
2 52903   0.0453 108.2795 0001412 258.0236 310.4698  1.00271291 14570
MEASAT 3D               
1 52904U 22067B   26164.78001479 -.00000230  00000+0  00000+0 0  9996
2 52904   0.0341 322.2499 0000487  99.7518 212.3572  1.00268356 14614
SES-22                  
1 52933U 22071A   26164.73428187  .00000115  00000+0  00000+0 0  9998
2 52933   0.0131 327.3131 0001258 102.9499 317.1177  1.00269634  7486
WFOV (USA 332)          
1 52940U 22073A   26164.85322399 -.00000355  00000+0  00000+0 0  9996
2 52940   3.7021  78.5692 0002171 236.4865  13.4994  1.00268207 14334
TIANLIAN 2-03           
1 53100U 22078A   26164.90658700  .00000081  00000+0  00000+0 0  9999
2 53100   0.6635  76.9831 0001558 326.0179 196.1726  1.00271845 14513
SBIRS GEO-6 (USA 336)   
1 53355U 22092A   26164.93203903 -.00000281  00000+0  00000+0 0  9994
2 53355   3.2635 317.4379 0001702 118.6144 300.7318  1.00270615 14202
EUTELSAT KONNECT VHTS   
1 53765U 22110A   26164.61988483  .00000027  00000+0  00000+0 0  9995
2 53765   0.0661 102.2131 0002386 323.9630  61.6108  1.00267874  6807
ZHONGXING-1E            
1 53813U 22112A   26164.95995258 -.00000140  00000+0  00000+0 0  9993
2 53813   0.0487 232.7800 0000881  83.2298  13.2300  1.00272597 13817
SES-20                  
1 53960U 22123A   26164.67019006 -.00000090  00000+0  00000+0 0  9999
2 53960   0.0329  70.2801 0001710   1.1766 328.6957  1.00267078 13495
